NAVSTAR 77 (USA 289)    
1 43873U 18109A   24290.00171803  .00000081  00000+0  00000+0 0  9998
2 43873  55.3463 116.2521 0031303 191.8548 349.7068  2.00560560 42857
